{
  "type": "FeatureCollection",
  "features": [
    {
      "type": "Feature",
      "properties": {
        "norad_id": 37846,
        "name": "GSAT0101 (GALILEO-PFM)",
        "group": "gnss",
        "lat": -47.36052751923951,
        "lon": -58.27088878413994,
        "alt_km": 23218.515717415296,
        "timestamp": "2025-12-23T22:42:33.226351+00:00",
        "meta_object_name": "GSAT0101 (GALILEO-PFM)",
        "meta_object_id": "2011-060A",
        "meta_epoch": "2025-12-22T06:52:10.962336",
        "meta_mean_motion": 1.70475741,
        "meta_eccentricity": 0.00032123,
        "meta_inclination": 57.0506,
        "meta_ra_of_asc_node": 346.5611,
        "meta_arg_of_pericenter": 320.0005,
        "meta_mean_anomaly": 39.9838,
        "meta_ephemeris_type": 0,
        "meta_classification_type": "U",
        "meta_norad_cat_id": 37846,
        "meta_element_set_no": 999,
        "meta_rev_at_epoch": 8810,
        "meta_bstar": 0,
        "meta_mean_motion_dot": -6.5e-07,
        "meta_mean_motion_ddot": 0,
        "tle_line1": "1 37846U 11060A   25356.28623799 -.00000065  00000+0  00000+0 0  9993",
        "tle_line2": "2 37846  57.0506 346.5611 0003212 320.0005  39.9838  1.70475741 88100"
      },
      "geometry": {
        "type": "Point",
        "coordinates": [
          -58.27088878413994,
          -47.36052751923951
        ]
      }
    },
    {
      "type": "Feature",
      "properties": {
        "norad_id": 37847,
        "name": "GSAT0102 (GALILEO-FM2)",
        "group": "gnss",
        "lat": -13.164168014642952,
        "lon": -22.22002743997388,
        "alt_km": 23210.91576280231,
        "timestamp": "2025-12-23T22:42:33.226363+00:00",
        "meta_object_name": "GSAT0102 (GALILEO-FM2)",
        "meta_object_id": "2011-060B",
        "meta_epoch": "2025-12-21T21:59:38.834016",
        "meta_mean_motion": 1.70475998,
        "meta_eccentricity": 0.00051487,
        "meta_inclination": 57.0514,
        "meta_ra_of_asc_node": 346.5715,
        "meta_arg_of_pericenter": 312.846,
        "meta_mean_anomaly": 225.6479,
        "meta_ephemeris_type": 0,
        "meta_classification_type": "U",
        "meta_norad_cat_id": 37847,
        "meta_element_set_no": 999,
        "meta_rev_at_epoch": 8810,
        "meta_bstar": 0,
        "meta_mean_motion_dot": -6.6e-07,
        "meta_mean_motion_ddot": 0,
        "tle_line1": "1 37847U 11060B   25355.91642169 -.00000066  00000+0  00000+0 0  9996",
        "tle_line2": "2 37847  57.0514 346.5715 0005148 312.8460 225.6479  1.70475998 88108"
      },
      "geometry": {
        "type": "Point",
        "coordinates": [
          -22.22002743997388,
          -13.164168014642952
        ]
      }
    },
    {
      "type": "Feature",
      "properties": {
        "norad_id": 37867,
        "name": "COSMOS 2476 (744)",
        "group": "gnss",
        "lat": 4.715701362029271,
        "lon": 80.99174517204088,
        "alt_km": 19169.675623125484,
        "timestamp": "2025-12-23T22:42:33.226393+00:00",
        "meta_object_name": "COSMOS 2476 (744)",
        "meta_object_id": "2011-064A",
        "meta_epoch": "2025-12-23T12:51:54.046080",
        "meta_mean_motion": 2.13103692,
        "meta_eccentricity": 0.002455,
        "meta_inclination": 65.1675,
        "meta_ra_of_asc_node": 78.8064,
        "meta_arg_of_pericenter": 235.5255,
        "meta_mean_anomaly": 174.828,
        "meta_ephemeris_type": 0,
        "meta_classification_type": "U",
        "meta_norad_cat_id": 37867,
        "meta_element_set_no": 999,
        "meta_rev_at_epoch": 11002,
        "meta_bstar": 0,
        "meta_mean_motion_dot": 1e-08,
        "meta_mean_motion_ddot": 0,
        "tle_line1": "1 37867U 11064A   25357.53604220  .00000001  00000+0  00000+0 0  9996",
        "tle_line2": "2 37867  65.1675  78.8064 0024550 235.5255 174.8280  2.13103692110020"
      },
      "geometry": {
        "type": "Point",
        "coordinates": [
          80.99174517204088,
          4.715701362029271
        ]
      }
    },
    {
      "type": "Feature",
      "properties": {
        "norad_id": 37868,
        "name": "COSMOS 2477 (745)",
        "group": "gnss",
        "lat": -5.217077465368118,
        "lon": -98.69791799951642,
        "alt_km": 19095.366502146437,
        "timestamp": "2025-12-23T22:42:33.226407+00:00",
        "meta_object_name": "COSMOS 2477 (745)",
        "meta_object_id": "2011-064B",
        "meta_epoch": "2025-12-23T05:19:57.056160",
        "meta_mean_motion": 2.13103036,
        "meta_eccentricity": 0.00215459,
        "meta_inclination": 65.1742,
        "meta_ra_of_asc_node": 78.8944,
        "meta_arg_of_pericenter": 235.4149,
        "meta_mean_anomaly": 115.0574,
        "meta_ephemeris_type": 0,
        "meta_classification_type": "U",
        "meta_norad_cat_id": 37868,
        "meta_element_set_no": 999,
        "meta_rev_at_epoch": 11000,
        "meta_bstar": 0,
        "meta_mean_motion_dot": 0,
        "meta_mean_motion_ddot": 0,
        "tle_line1": "1 37868U 11064B   25357.22218815  .00000000  00000+0  00000+0 0  9993",
        "tle_line2": "2 37868  65.1742  78.8944 0021545 235.4149 115.0574  2.13103036110008"
      },
      "geometry": {
        "type": "Point",
        "coordinates": [
          -98.69791799951642,
          -5.217077465368118
        ]
      }
    },
    {
      "type": "Feature",
      "properties": {
        "norad_id": 37869,
        "name": "COSMOS 2475 (743)",
        "group": "gnss",
        "lat": 34.384287683242526,
        "lon": -119.52760422436947,
        "alt_km": 19146.36247707008,
        "timestamp": "2025-12-23T22:42:33.226426+00:00",
        "meta_object_name": "COSMOS 2475 (743)",
        "meta_object_id": "2011-064C",
        "meta_epoch": "2025-12-23T06:48:57.377088",
        "meta_mean_motion": 2.13101654,
        "meta_eccentricity": 0.00266814,
        "meta_inclination": 65.1811,
        "meta_ra_of_asc_node": 78.9126,
        "meta_arg_of_pericenter": 249.1292,
        "meta_mean_anomaly": 104.6561,
        "meta_ephemeris_type": 0,
        "meta_classification_type": "U",
        "meta_norad_cat_id": 37869,
        "meta_element_set_no": 999,
        "meta_rev_at_epoch": 11001,
        "meta_bstar": 0,
        "meta_mean_motion_dot": 1e-08,
        "meta_mean_motion_ddot": 0,
        "tle_line1": "1 37869U 11064C   25357.28399742  .00000001  00000+0  00000+0 0  9990",
        "tle_line2": "2 37869  65.1811  78.9126 0026681 249.1292 104.6561  2.13101654110011"
      },
      "geometry": {
        "type": "Point",
        "coordinates": [
          -119.52760422436947,
          34.384287683242526
        ]
      }
    },
    {
      "type": "Feature",
      "properties": {
        "norad_id": 37948,
        "name": "BEIDOU-2 IGSO-5 (C10)",
        "group": "gnss",
        "lat": -45.583050659395965,
        "lon": 160.31381554719854,
        "alt_km": 35392.273522748175,
        "timestamp": "2025-12-23T22:42:33.226439+00:00",
        "meta_object_name": "BEIDOU-2 IGSO-5 (C10)",
        "meta_object_id": "2011-073A",
        "meta_epoch": "2025-12-22T17:56:38.660352",
        "meta_mean_motion": 1.00289046,
        "meta_eccentricity": 0.01097824,
        "meta_inclination": 48.0017,
        "meta_ra_of_asc_node": 273.7363,
        "meta_arg_of_pericenter": 222.2409,
        "meta_mean_anomaly": 318.2771,
        "meta_ephemeris_type": 0,
        "meta_classification_type": "U",
        "meta_norad_cat_id": 37948,
        "meta_element_set_no": 999,
        "meta_rev_at_epoch": 5136,
        "meta_bstar": 0,
        "meta_mean_motion_dot": -1.4e-06,
        "meta_mean_motion_ddot": 0,
        "tle_line1": "1 37948U 11073A   25356.74766968 -.00000140  00000+0  00000+0 0  9991",
        "tle_line2": "2 37948  48.0017 273.7363 0109782 222.2409 318.2771  1.00289046 51366"
      },
      "geometry": {
        "type": "Point",
        "coordinates": [
          160.31381554719854,
          -45.583050659395965
        ]
      }
    },
    {
      "type": "Feature",
      "properties": {
        "norad_id": 37951,
        "name": "LUCH 5A (SDCM/PRN 140)",
        "group": "gnss",
        "lat": 2.277741452003727,
        "lon": -119.4651565617279,
        "alt_km": 35767.07932982595,
        "timestamp": "2025-12-23T22:42:33.226451+00:00",
        "meta_object_name": "LUCH 5A (SDCM/PRN 140)",
        "meta_object_id": "2011-074B",
        "meta_epoch": "2025-12-23T07:10:58.869408",
        "meta_mean_motion": 1.0026906,
        "meta_eccentricity": 0.00051752,
        "meta_inclination": 8.3049,
        "meta_ra_of_asc_node": 76.4293,
        "meta_arg_of_pericenter": 191.1681,
        "meta_mean_anomaly": 99.2782,
        "meta_ephemeris_type": 0,
        "meta_classification_type": "U",
        "meta_norad_cat_id": 37951,
        "meta_element_set_no": 999,
        "meta_rev_at_epoch": 5128,
        "meta_bstar": 0,
        "meta_mean_motion_dot": -3.2e-07,
        "meta_mean_motion_ddot": 0,
        "tle_line1": "1 37951U 11074B   25357.29929247 -.00000032  00000+0  00000+0 0  9998",
        "tle_line2": "2 37951   8.3049  76.4293 0005175 191.1681  99.2782  1.00269060 51284"
      },
      "geometry": {
        "type": "Point",
        "coordinates": [
          -119.4651565617279,
          2.277741452003727
        ]
      }
    }
  ]
}